{
  "type": "FeatureCollection",
  "features": [
    {
      "type": "Feature",
      "properties": {
        "norad_id": 41589,
        "name": "EUTELSAT 117 WEST B (WAAS/PRN 131)",
        "group": "gnss",
        "lat": 0.00351601775636494,
        "lon": -41.712375087399096,
        "alt_km": 35781.86059548994,
        "timestamp": "2025-12-25T22:42:17.254338+00:00",
        "meta_object_name": "EUTELSAT 117 WEST B (WAAS/PRN 131)",
        "meta_object_id": "2016-038B",
        "meta_epoch": "2025-12-24T09:59:01.014144",
        "meta_mean_motion": 1.00277873,
        "meta_eccentricity": 6.384e-05,
        "meta_inclination": 0.0094,
        "meta_ra_of_asc_node": 154.0765,
        "meta_arg_of_pericenter": 139.5473,
        "meta_mean_anomaly": 192.3072,
        "meta_ephemeris_type": 0,
        "meta_classification_type": "U",
        "meta_norad_cat_id": 41589,
        "meta_element_set_no": 999,
        "meta_rev_at_epoch": 3491,
        "meta_bstar": 0,
        "meta_mean_motion_dot": 9e-08,
        "meta_mean_motion_ddot": 0,
        "tle_line1": "1 41589U 16038B   25358.41598396  .00000009  00000+0  00000+0 0  9990",
        "tle_line2": "2 41589   0.0094 154.0765 0000638 139.5473 192.3072  1.00277873 34915"
      },
      "geometry": {
        "type": "Point",
        "coordinates": [
          -41.712375087399096,
          0.00351601775636494
        ]
      }
    },
    {
      "type": "Feature",
      "properties": {
        "norad_id": 41859,
        "name": "GSAT0207 (GALILEO 15)",
        "group": "gnss",
        "lat": 25.102718322887988,
        "lon": -92.96403061653486,
        "alt_km": 23226.17399057409,
        "timestamp": "2025-12-25T22:42:17.254354+00:00",
        "meta_object_name": "GSAT0207 (GALILEO 15)",
        "meta_object_id": "2016-069A",
        "meta_epoch": "2025-12-22T04:24:39.710016",
        "meta_mean_motion": 1.70474442,
        "meta_eccentricity": 0.00024396,
        "meta_inclination": 55.3874,
        "meta_ra_of_asc_node": 105.9888,
        "meta_arg_of_pericenter": 317.4324,
        "meta_mean_anomaly": 42.5257,
        "meta_ephemeris_type": 0,
        "meta_classification_type": "U",
        "meta_norad_cat_id": 41859,
        "meta_element_set_no": 999,
        "meta_rev_at_epoch": 5638,
        "meta_bstar": 0,
        "meta_mean_motion_dot": 6e-08,
        "meta_mean_motion_ddot": 0,
        "tle_line1": "1 41859U 16069A   25356.18379294  .00000006  00000+0  00000+0 0  9997",
        "tle_line2": "2 41859  55.3874 105.9888 0002439 317.4324  42.5257  1.70474442 56382"
      },
      "geometry": {
        "type": "Point",
        "coordinates": [
          -92.96403061653486,
          25.102718322887988
        ]
      }
    },
    {
      "type": "Feature",
      "properties": {
        "norad_id": 41860,
        "name": "GSAT0212 (GALILEO 16)",
        "group": "gnss",
        "lat": -44.76735269805773,
        "lon": -30.95604139430669,
        "alt_km": 23231.834940825138,
        "timestamp": "2025-12-25T22:42:17.254365+00:00",
        "meta_object_name": "GSAT0212 (GALILEO 16)",
        "meta_object_id": "2016-069B",
        "meta_epoch": "2025-12-23T19:07:58.296864",
        "meta_mean_motion": 1.70474626,
        "meta_eccentricity": 0.0002039,
        "meta_inclination": 55.3859,
        "meta_ra_of_asc_node": 105.9395,
        "meta_arg_of_pericenter": 17.7426,
        "meta_mean_anomaly": 342.2518,
        "meta_ephemeris_type": 0,
        "meta_classification_type": "U",
        "meta_norad_cat_id": 41860,
        "meta_element_set_no": 999,
        "meta_rev_at_epoch": 5666,
        "meta_bstar": 0,
        "meta_mean_motion_dot": 1.3e-07,
        "meta_mean_motion_ddot": 0,
        "tle_line1": "1 41860U 16069B   25357.79720251  .00000013  00000+0  00000+0 0  9998",
        "tle_line2": "2 41860  55.3859 105.9395 0002039  17.7426 342.2518  1.70474626 56664"
      },
      "geometry": {
        "type": "Point",
        "coordinates": [
          -30.95604139430669,
          -44.76735269805773
        ]
      }
    },
    {
      "type": "Feature",
      "properties": {
        "norad_id": 41861,
        "name": "GSAT0213 (GALILEO 17)",
        "group": "gnss",
        "lat": 10.849321351727603,
        "lon": 113.48246313608018,
        "alt_km": 23221.035141443204,
        "timestamp": "2025-12-25T22:42:17.254380+00:00",
        "meta_object_name": "GSAT0213 (GALILEO 17)",
        "meta_object_id": "2016-069C",
        "meta_epoch": "2025-12-21T19:38:29.842080",
        "meta_mean_motion": 1.70474953,
        "meta_eccentricity": 0.00027355,
        "meta_inclination": 55.3872,
        "meta_ra_of_asc_node": 106.002,
        "meta_arg_of_pericenter": 282.3014,
        "meta_mean_anomaly": 77.6427,
        "meta_ephemeris_type": 0,
        "meta_classification_type": "U",
        "meta_norad_cat_id": 41861,
        "meta_element_set_no": 999,
        "meta_rev_at_epoch": 5649,
        "meta_bstar": 0,
        "meta_mean_motion_dot": 4e-08,
        "meta_mean_motion_ddot": 0,
        "tle_line1": "1 41861U 16069C   25355.81840095  .00000004  00000+0  00000+0 0  9999",
        "tle_line2": "2 41861  55.3872 106.0020 0002735 282.3014  77.6427  1.70474953 56495"
      },
      "geometry": {
        "type": "Point",
        "coordinates": [
          113.48246313608018,
          10.849321351727603
        ]
      }
    },
    {
      "type": "Feature",
      "properties": {
        "norad_id": 41862,
        "name": "GSAT0214 (GALILEO 18)",
        "group": "gnss",
        "lat": -53.142134837175064,
        "lon": 38.963623936575466,
        "alt_km": 23222.71889136417,
        "timestamp": "2025-12-25T22:42:17.254390+00:00",
        "meta_object_name": "GSAT0214 (GALILEO 18)",
        "meta_object_id": "2016-069D",
        "meta_epoch": "2025-12-24T07:27:29.645856",
        "meta_mean_motion": 1.70474781,
        "meta_eccentricity": 0.00017476,
        "meta_inclination": 55.3867,
        "meta_ra_of_asc_node": 105.9257,
        "meta_arg_of_pericenter": 287.2715,
        "meta_mean_anomaly": 72.6994,
        "meta_ephemeris_type": 0,
        "meta_classification_type": "U",
        "meta_norad_cat_id": 41862,
        "meta_element_set_no": 999,
        "meta_rev_at_epoch": 5666,
        "meta_bstar": 0,
        "meta_mean_motion_dot": 1.5e-07,
        "meta_mean_motion_ddot": 0,
        "tle_line1": "1 41862U 16069D   25358.31075979  .00000015  00000+0  00000+0 0  9991",
        "tle_line2": "2 41862  55.3867 105.9257 0001747 287.2715  72.6994  1.70474781 56666"
      },
      "geometry": {
        "type": "Point",
        "coordinates": [
          38.963623936575466,
          -53.142134837175064
        ]
      }
    },
    {
      "type": "Feature",
      "properties": {
        "norad_id": 42709,
        "name": "SES-15 (WAAS/PRN 133)",
        "group": "gnss",
        "lat": -0.024871698387354032,
        "lon": -53.91747333090133,
        "alt_km": 35786.55022032738,
        "timestamp": "2025-12-25T22:42:17.254402+00:00",
        "meta_object_name": "SES-15 (WAAS/PRN 133)",
        "meta_object_id": "2017-026A",
        "meta_epoch": "2025-12-24T22:45:23.082912",
        "meta_mean_motion": 1.00266955,
        "meta_eccentricity": 1.926e-05,
        "meta_inclination": 0.0189,
        "meta_ra_of_asc_node": 339.9937,
        "meta_arg_of_pericenter": 321.3505,
        "meta_mean_anomaly": 4.5524,
        "meta_ephemeris_type": 0,
        "meta_classification_type": "U",
        "meta_norad_cat_id": 42709,
        "meta_element_set_no": 999,
        "meta_rev_at_epoch": 568,
        "meta_bstar": 0,
        "meta_mean_motion_dot": 8.1e-07,
        "meta_mean_motion_ddot": 0,
        "tle_line1": "1 42709U 17026A   25358.94818383  .00000081  00000+0  00000+0 0  9992",
        "tle_line2": "2 42709   0.0189 339.9937 0000192 321.3505   4.5524  1.00266955  5689"
      },
      "geometry": {
        "type": "Point",
        "coordinates": [
          -53.91747333090133,
          -0.024871698387354032
        ]
      }
    },
    {
      "type": "Feature",
      "properties": {
        "norad_id": 42738,
        "name": "QZS-2 (QZSS/PRN 194)",
        "group": "gnss",
        "lat": -12.848585014627318,
        "lon": -130.21804189288187,
        "alt_km": 34497.80375300131,
        "timestamp": "2025-12-25T22:42:17.254454+00:00",
        "meta_object_name": "QZS-2 (QZSS/PRN 194)",
        "meta_object_id": "2017-028A",
        "meta_epoch": "2025-12-21T12:44:15.516096",
        "meta_mean_motion": 1.00280763,
        "meta_eccentricity": 0.07561437,
        "meta_inclination": 39.6996,
        "meta_ra_of_asc_node": 245.7532,
        "meta_arg_of_pericenter": 269.5788,
        "meta_mean_anomaly": 268.1676,
        "meta_ephemeris_type": 0,
        "meta_classification_type": "U",
        "meta_norad_cat_id": 42738,
        "meta_element_set_no": 999,
        "meta_rev_at_epoch": 584,
        "meta_bstar": 0,
        "meta_mean_motion_dot": -1.06e-06,
        "meta_mean_motion_ddot": 0,
        "tle_line1": "1 42738U 17028A   25355.53073514 -.00000106  00000+0  00000+0 0  9996",
        "tle_line2": "2 42738  39.6996 245.7532 0756143 269.5788 268.1676  1.00280763  5847"
      },
      "geometry": {
        "type": "Point",
        "coordinates": [
          -130.21804189288187,
          -12.848585014627318
        ]
      }
    }
  ]
}